O3B MPOWER F1           
1 54755U 22174A   24115.32632101 -.00000016  00000+0  00000+0 0  9999
2 54755   0.0653   2.6615 0006695  36.3730 240.5305  5.00114748 26142
